City,County,Place,lat,lon,rest_id,Location
Goa,India,Cafe Coffee Day,15.4822637,73.809043,4608458026852568657,"Cafe Coffee Day,Goa,India"
Goa,India,Cafe Delish,15.5765525,73.7459118,4969630048159747539,"Cafe Delish,Goa,India"
Goa,India,Cafe Diogo,15.5776302,73.74698740000002,14381004962533755682,"Cafe Diogo,Goa,India"
Goa,India,Cafe Orange Boom,15.5775148,73.7465811,13240528833393476890,"Cafe Orange Boom,Goa,India"
Goa,India,Cafe Coffee Day,15.835162400000002,74.50492990000002,16323380750220479696,"Cafe Coffee Day,Goa,India"
Goa,India,Sushi Cafe,15.6928356,73.7005215,6710113750256599676,"Sushi Cafe,Goa,India"
Goa,India,Umbrella Cafe,15.690956,73.7045628,5597114453166084090,"Umbrella Cafe,Goa,India"
Goa,India,Cafe Beach Hut,15.1718859,73.9421387,17183919467372039700,"Cafe Beach Hut,Goa,India"
Goa,India,Antonio Cafe,15.2812958,73.9119067,4390744799033379222,"Antonio Cafe,Goa,India"
Goa,India,Fishermens Cafe,15.2944016,73.90757409999998,12891993417255438929,"Fishermens Cafe,Goa,India"
Goa,India,Little Palm Cafe,15.293497199999996,73.9078755,14565917539339092983,"Little Palm Cafe,Goa,India"
Goa,India,Silver Star Cafe,15.2868301,73.91062120000002,9053607062736751134,"Silver Star Cafe,Goa,India"
Goa,India,Bob's Cafe,15.277413199999998,73.9133257,15529627773849521680,"Bob's Cafe,Goa,India"
Goa,India,Antony's Sizzling Cafe,15.2792152,73.91449300000002,17233840063544510332,"Antony's Sizzling Cafe,Goa,India"
Goa,India,Atul Cafe,15.2758429,73.914596,1047870180929194628,"Atul Cafe,Goa,India"
Goa,India,Nirvana Cafe,14.9967061,74.0344561,4720521475528281935,"Nirvana Cafe,Goa,India"
Goa,India,Round Cube Cafe,14.9971688,74.0341821,16528705275364460939,"Round Cube Cafe,Goa,India"
Goa,India,Rockit Cafe,15.0126182,74.0175843,14208888613136977462,"Rockit Cafe,Goa,India"
Goa,India,Cafe Budan,15.0396723,73.98912800000002,11896612119012066899,"Cafe Budan,Goa,India"
Goa,India,Sea Pearls Beach Cafe,15.2124018,73.931537,763641825254786783,"Sea Pearls Beach Cafe,Goa,India"
Goa,India,Freedom Cafe,15.6745726,73.7067313,13160821168180905041,"Freedom Cafe,Goa,India"
Goa,India,Aggies Cafe,15.5319769,73.7588963,11152742174358392147,"Aggies Cafe,Goa,India"
Goa,India,Cafe Jazz,15.5158827,73.76818709999998,10349918687735268685,"Cafe Jazz,Goa,India"
Goa,India,Pine Cafe,15.5285821,73.7600157,11455657793308019485,"Pine Cafe,Goa,India"
Goa,India,Reggie's Cafe,15.533901,73.7582771,12209374968529569802,"Reggie's Cafe,Goa,India"
Goa,India,Cafe Horizon,15.5435434,73.7553944,11043447396407987517,"Cafe Horizon,Goa,India"
Goa,India,Cafe H2O,15.5857479,73.74137569999998,1906709126987858415,"Cafe H2O,Goa,India"
Goa,India,Cafe Antonio's,15.5761302,73.7402184,12667789164304222360,"Cafe Antonio's,Goa,India"
Goa,India,Cafe Looda,15.5718614,73.7416953,9173122168348691302,"Cafe Looda,Goa,India"
Goa,India,Nirvana Cafe,15.6001634,73.73653,14171917124414423711,"Nirvana Cafe,Goa,India"
Goa,India,Om Cafe,15.5942117,73.734503,603103557893768969,"Om Cafe,Goa,India"
Goa,India,Andys Cafe,15.5961144,73.8110725,8586253806867139034,"Andys Cafe,Goa,India"
Goa,India,Cafe Nidhi,15.6658689,73.7224467,8636431864268802943,"Cafe Nidhi,Goa,India"
Goa,India,KRISH Cafe,15.6817456,73.70467909999998,7088829752731779227,"KRISH Cafe,Goa,India"
Goa,India,Sunshine Cafe,15.6745784,73.70649709999998,14300973925088053690,"Sunshine Cafe,Goa,India"
Goa,India,Cafe Bhosle,15.4995478,73.82745279999997,12114276116627934026,"Cafe Bhosle,Goa,India"
Goa,India,Cafe Coffee Day,15.464905900000002,73.8540437,885569579848254509,"Cafe Coffee Day,Goa,India"
Goa,India,Cafe Real,15.50032,73.8268071,11958555039664458635,"Cafe Real,Goa,India"
Goa,India,Cafe de Goa,15.547329199999998,73.7709301,2946863496625407288,"Cafe de Goa,Goa,India"
Goa,India,Shanti Cafe,15.6848214,73.70649559999998,5440105256768323607,"Shanti Cafe,Goa,India"
Goa,India,Cafe Chix,15.3949309,74.0024056,12325135228998993817,"Cafe Chix,Goa,India"
Goa,India,AJ's Cafe,15.262085,73.9373932,15143872835091777174,"AJ's Cafe,Goa,India"
Goa,India,Tibetian Momo Cafe,15.6839229,73.70730999999998,13405018392038491815,"Tibetian Momo Cafe,Goa,India"
Goa,India,Trufles Cafe,15.471838,73.8111322,18110570845625011882,"Trufles Cafe,Goa,India"
Goa,India,Cafe Coffee Day,15.4949233,73.8342747,2454569095344115402,"Cafe Coffee Day,Goa,India"
Goa,India,Cafe Basil,15.4831079,73.81098850000002,9205570879215518105,"Cafe Basil,Goa,India"
Goa,India,Cafe Mojo,15.4979652,73.8250245,2959178013559638842,"Cafe Mojo,Goa,India"
Goa,India,Cafe Coffee Day,15.5008152,73.82783540000001,14671945593452183784,"Cafe Coffee Day,Goa,India"
Goa,India,Kitchen Country Best Cafe,15.5851525,73.7405282,13521128223070636446,"Kitchen Country Best Cafe,Goa,India"
Goa,India,Kitchen Country Best Cafe,15.5851525,73.7405282,8045557043467666031,"Kitchen Country Best Cafe,Goa,India"
Goa,India,Internet Cafe,15.2757989,73.9573036,16240975137012140148,"Internet Cafe,Goa,India"
Goa,India,Cafe Fiori,15.545276,73.76055,9504797872273705855,"Cafe Fiori,Goa,India"
Goa,India,Anugraha Udupi Cafe,15.272892,73.95601579999997,1396727424254560390,"Anugraha Udupi Cafe,Goa,India"
Goa,India,Rodcans Globalinx Cyber Cafe,15.289044,73.95278,2001221828264216644,"Rodcans Globalinx Cyber Cafe,Goa,India"
Goa,India,Village Cafe,15.34313,73.89463,5740079177654161211,"Village Cafe,Goa,India"
Goa,India,Barbosa Cafe,15.370739000000002,73.92657170000003,7561833274262965816,"Barbosa Cafe,Goa,India"
Goa,India,Cafe Ashirwad,15.277189800000002,73.9621125,1199648812766481121,"Cafe Ashirwad,Goa,India"
Goa,India,Cafetaria,15.5681829,74.0258829,660071849463074587,"Cafetaria,Goa,India"
Goa,India,Cafe De Republica,15.39201,73.86103,11414557514055569129,"Cafe De Republica,Goa,India"
Goa,India,St. Antonio Cafe (Bab's Bakery),15.261035,73.92988000000003,11643908914742313883,"St. Antonio Cafe (Bab's Bakery),Goa,India"
Goa,India,Cafe Tato,15.274325400000002,73.959018,1206322954176514281,"Cafe Tato,Goa,India"
Goa,India,Cafe Samrat restaurant,15.545998999999998,73.79033000000003,2786905009887137777,"Cafe Samrat restaurant,Goa,India"
Goa,India,CyberCulture Internet Cafe,15.5551932,73.7777492,8366910211140569933,"CyberCulture Internet Cafe,Goa,India"
Goa,India,Cafe Coffee Day,15.592879,73.813286,7752714072429775326,"Cafe Coffee Day,Goa,India"
Goa,India,Cafe Mouaz Veg & Non Veg Restaurant,15.488397,73.818563,13827459299664675444,"Cafe Mouaz Veg & Non Veg Restaurant,Goa,India"
Goa,India,Santosh  Cafe,15.396378,73.91523199999997,5234272474682835579,"Santosh  Cafe,Goa,India"
Goa,India,Flavors Cafe Bar & Restaurant,15.451579,73.923488,13995525576961376481,"Flavors Cafe Bar & Restaurant,Goa,India"
Goa,India,Shrivardhan Cafe and Restaurant,15.44297,73.86606,6851864162998699240,"Shrivardhan Cafe and Restaurant,Goa,India"
Goa,India,Cafe Coffee Day - Colva Beach Road,15.276404,73.91590699999998,2441371421302803885,"Cafe Coffee Day - Colva Beach Road,Goa,India"
Goa,India,Cheddar's Casual Cafe,15.453609,73.84634399999999,1695260172821481500,"Cheddar's Casual Cafe,Goa,India"
Goa,India,Soft Rock Cafe,15.459332,73.8115,6285361226687595663,"Soft Rock Cafe,Goa,India"
Goa,India,Cafe Corte Real,15.466414000000002,73.84697,2686539930100516288,"Cafe Corte Real,Goa,India"
Goa,India,Cafe Porvorim,15.519177,73.83293,15802066858131672310,"Cafe Porvorim,Goa,India"
Goa,India,Baba Cafe French Bakery & Pizzeria,15.571674,73.762764,11074291158043217421,"Baba Cafe French Bakery & Pizzeria,Goa,India"
Goa,India,Sushi Cafe,14.9928,74.042361,9765658668113283848,"Sushi Cafe,Goa,India"
Goa,India,Bollywood Cafe Bar & Restaurant,15.263404,74.104,13769986369625672972,"Bollywood Cafe Bar & Restaurant,Goa,India"
Goa,India,Isabella Cafeteria,15.630037,73.76509,12820447768008214704,"Isabella Cafeteria,Goa,India"
Goa,India,Cafe Kalaprasad,15.48228,73.85407,2497209191415236481,"Cafe Kalaprasad,Goa,India"
Goa,India,Neon Cafe,15.452001999999998,73.86388000000002,18329308318331586133,"Neon Cafe,Goa,India"
Goa,India,Cafe Siddhi (Bappa),15.482471,73.85365999999998,4954079022524943272,"Cafe Siddhi (Bappa),Goa,India"
Goa,India,Trevor Cafe,15.615166,73.757789,12105333403475985293,"Trevor Cafe,Goa,India"
Goa,India,Zorba Beer Cafe,15.5860298,73.741537,18207867080141261991,"Zorba Beer Cafe,Goa,India"
Goa,India,Manchester United Cafe Bar,15.5483836,73.7601423,10350335103062984945,"Manchester United Cafe Bar,Goa,India"
Goa,India,Cafe Bharat,15.426859,73.898674,17412572334502464870,"Cafe Bharat,Goa,India"
Goa,India,Rosena Cafeteria,15.276260699999998,73.91536640000002,16871290481547431536,"Rosena Cafeteria,Goa,India"
Goa,India,Sai Cyber Cafe,15.28336,73.96963000000002,11193563799610019597,"Sai Cyber Cafe,Goa,India"
Goa,India,Vanilla Cafe - Veg and Non-Veg,15.2325503,73.9431012,15502491420098250589,"Vanilla Cafe - Veg and Non-Veg,Goa,India"
Goa,India,Ashoka Cafe,15.2330482,73.9435603,15294394589534439582,"Ashoka Cafe,Goa,India"
Goa,India,Cafe Krishnai,15.5985284,73.81573490000002,13754389827482371273,"Cafe Krishnai,Goa,India"
Goa,India,Cafe Pizzeria Point,15.2859217,73.9572545,13609727704375838382,"Cafe Pizzeria Point,Goa,India"
Goa,India,Cafe Deli,15.49543,73.83179,14897772696163207721,"Cafe Deli,Goa,India"
Goa,India,Bharat Cafe,15.2114134,73.9770083,5118724300180572304,"Bharat Cafe,Goa,India"
Goa,India,Cafe 15,15.273144,73.9544237,5012966427150205612,"Cafe 15,Goa,India"
Goa,India,Cafe ritz,15.500061,73.8278929,10257374203315700190,"Cafe ritz,Goa,India"
Goa,India,Cafe devata,15.500169199999998,73.9009028,5031544924061844528,"Cafe devata,Goa,India"
Goa,India,Madgaum Cafe,15.270234599999998,73.9591746,10611542615762945717,"Madgaum Cafe,Goa,India"
Goa,India,Sunshine Cafe,15.675966,73.707461,10604036468231719952,"Sunshine Cafe,Goa,India"
Goa,India,Cafe Kalpana,15.534349800000005,73.8241302,4582449839336343687,"Cafe Kalpana,Goa,India"
Goa,India,Yogesh Cafe,15.3976521,73.91063790000003,16459651245508281668,"Yogesh Cafe,Goa,India"
Goa,India,Sachin Cafe,15.473143,73.84993359999999,12989917220269933750,"Sachin Cafe,Goa,India"
Goa,India,Ruta's Roadhouse Cafe,15.5911166,73.7708223,1584937963678484595,"Ruta's Roadhouse Cafe,Goa,India"
Goa,India,Zest Cafe,15.011757800000002,74.02485290000001,16101052204791711801,"Zest Cafe,Goa,India"
Goa,India,Cafe Food Planet,15.6743529,73.7067297,998762809375803083,"Cafe Food Planet,Goa,India"
Goa,India,Cafe Sanchita,15.6025301,73.81556859999998,3702627346622858982,"Cafe Sanchita,Goa,India"
Goa,India,Preva Cafe,15.5509289,73.8179723,7498573841729275837,"Preva Cafe,Goa,India"
Goa,India,MacBrown Cafe,15.5000437,73.83121700000002,9045897207652631192,"MacBrown Cafe,Goa,India"
Goa,India,Hotel Cafe Prasad,15.499905300000002,73.82963790000002,12929663018640951821,"Hotel Cafe Prasad,Goa,India"
Goa,India,Cafe Coffee Day,15.4857359,73.8114707,3604887250407801121,"Cafe Coffee Day,Goa,India"
Goa,India,Cafe Borkar,15.4898712,73.8197848,17604987521050954253,"Cafe Borkar,Goa,India"
Goa,India,Mona Cafe,15.6712328,73.714371,8638928052862404140,"Mona Cafe,Goa,India"
Goa,India,Sunanda Cafe,15.2911826,73.9640722,9001954912560762012,"Sunanda Cafe,Goa,India"
Goa,India,Cafe Dolphin Bar & Restaurant,15.632637900000002,73.7317568,186668863896699442,"Cafe Dolphin Bar & Restaurant,Goa,India"
Goa,India,Del Mar Cafe,15.6189709,73.7322302,205340491379392543,"Del Mar Cafe,Goa,India"
Goa,India,Ramola Cafeteria,15.2485914,73.9373643,10342573846047899889,"Ramola Cafeteria,Goa,India"
Goa,India,Seventeenth Avenue Cafe,15.2783256,73.9283937,16737038467419884721,"Seventeenth Avenue Cafe,Goa,India"
Goa,India,Pirates Cafe,15.5783913,73.739345,14011236380965031523,"Pirates Cafe,Goa,India"
Goa,India,Ganesh Cafe,15.2778845,73.9207672,2628788785802332377,"Ganesh Cafe,Goa,India"
Goa,India,Cafe Premanand,15.631128899999998,73.7606642,14429499786964189662,"Cafe Premanand,Goa,India"
Goa,India,Glad's Cafe,15.354421300000002,73.890047,2570323981847119230,"Glad's Cafe,Goa,India"
Goa,India,Town Cafe,15.5565799,73.7542646,11814623498321022029,"Town Cafe,Goa,India"
Goa,India,Blue Planet Cafe,15.0389456,74.0009222,12742727387271479719,"Blue Planet Cafe,Goa,India"
Goa,India,Cafe Morjim,15.6386938,73.7203416,5009617646615415298,"Cafe Morjim,Goa,India"
Goa,India,Cafe Tanya,15.3980664,73.81788259999998,8083495931734870648,"Cafe Tanya,Goa,India"
Goa,India,Tanvi Cafe,15.6237141,73.73744649999998,3524472816713810096,"Tanvi Cafe,Goa,India"
Goa,India,Cafe Susegado,15.0109946,74.0255141,8255843807685069473,"Cafe Susegado,Goa,India"
Goa,India,Shri Ganesh Cafe Corner,15.562194,74.0121797,7844080527590706826,"Shri Ganesh Cafe Corner,Goa,India"
Goa,India,Cremeux Express Cafe,15.5618375,74.0118484,7773348320717980017,"Cremeux Express Cafe,Goa,India"
Goa,India,Rocky’s Place Art Cafe,15.682784699999996,73.7063721,2089682153550137233,"Rocky’s Place Art Cafe,Goa,India"
Goa,India,Cafe Harmony,15.6836027,73.7073304,8044978517339883336,"Cafe Harmony,Goa,India"
Goa,India,Malla Cafe,15.6907095,73.7020832,6815196406503982637,"Malla Cafe,Goa,India"
Goa,India,Eva Cafe,15.580156099999998,73.7382072,3842493209299404693,"Eva Cafe,Goa,India"
Goa,India,D Cafe,15.5755174,73.74166329999998,2446501869233521942,"D Cafe,Goa,India"
Goa,India,Jungle Dance Cafe,15.693941,73.74012320000001,4285112671692800788,"Jungle Dance Cafe,Goa,India"
Goa,India,Sneha Cafe,14.9998231,74.03406590000002,15850897977959140186,"Sneha Cafe,Goa,India"
Goa,India,Cesare’s Cafe,15.0047857,74.0316899,13790091326471488022,"Cesare’s Cafe,Goa,India"
Goa,India,Cafe del Mar,15.0104786,74.02330090000002,10252600048672588913,"Cafe del Mar,Goa,India"
Goa,India,The Norling Cafe,15.6699538,73.7134087,10168587975276382973,"The Norling Cafe,Goa,India"
Goa,India,Shrinivas Cafe,15.2684022,73.95995040000003,3229792970325837052,"Shrinivas Cafe,Goa,India"
Goa,India,Cafe Maharaj,15.5588335,73.75476850000003,4357322634715287055,"Cafe Maharaj,Goa,India"
Goa,India,Mayonna Creek Side Bar & Restaurant,15.5671618,73.7512831,3937663072155682996,"Mayonna Creek Side Bar & Restaurant,Goa,India"
Goa,India,Sunset Restaurant & Bar,15.563143,73.7479133,11468934761404383753,"Sunset Restaurant & Bar,Goa,India"
Goa,India,VBR Goenkar Restaurant,15.397018,73.9098168,2370117771187146347,"VBR Goenkar Restaurant,Goa,India"
Goa,India,Sunset Bar & Restaurant,15.0349757,73.991958,16717821721611488057,"Sunset Bar & Restaurant,Goa,India"
Goa,India,Lourdes Bar and Restaurant,15.3230302,73.9099361,11150597087592269657,"Lourdes Bar and Restaurant,Goa,India"
Goa,India,Leda Lounge Restaurant,15.27727,73.916207,5535740884617480561,"Leda Lounge Restaurant,Goa,India"
Goa,India,Sun n Moon Bar and Restaurant,15.246015099999996,73.9228209,14238482536091107508,"Sun n Moon Bar and Restaurant,Goa,India"
Goa,India,Island View Restaurant,15.3198731,73.899254,2738106461986570388,"Island View Restaurant,Goa,India"
Goa,India,Vagabond Bar and Restaurant,15.3361261,73.9064309,9873241359979531606,"Vagabond Bar and Restaurant,Goa,India"
Goa,India,Fiplee's Restaurant Pubs,15.2617815,73.9303776,10100236117040119937,"Fiplee's Restaurant Pubs,Goa,India"
Goa,India,Babaji Restaurant,15.5909807,73.8100237,6586634354068441018,"Babaji Restaurant,Goa,India"
Goa,India,Dunes Restaurant,15.6659441,73.712276,4034551762200447867,"Dunes Restaurant,Goa,India"
Goa,India,George Restaurant,15.498861300000002,73.82882959999998,16269152514595769242,"George Restaurant,Goa,India"
Goa,India,Capital Organic Restaurant,14.9986274,74.0362298,16652115949733497045,"Capital Organic Restaurant,Goa,India"
Goa,India,German Bakery Classic Bar & Restaurant,15.0093041,74.0276631,1931776345154668757,"German Bakery Classic Bar & Restaurant,Goa,India"
Goa,India,Golden Eye Restaurant,15.1767451,73.94774100000002,3477792495626240675,"Golden Eye Restaurant,Goa,India"
Goa,India,The Baggies Rest,15.29469,73.9074907,14222466331021952030,"The Baggies Rest,Goa,India"
Goa,India,Little Goa Family Restaurant,15.2771589,73.914527,13048536320857558773,"Little Goa Family Restaurant,Goa,India"
Goa,India,Magic View Restaurant,14.999831900000002,74.02944649999998,15793525619858555832,"Magic View Restaurant,Goa,India"
Goa,India,Maria Paulo Bar'n'Rest,15.0405168,73.9887762,1883838141481763882,"Maria Paulo Bar'n'Rest,Goa,India"
Goa,India,Eddy Place Beach Restaurant,15.21296,73.9314489,10586940632005820495,"Eddy Place Beach Restaurant,Goa,India"
Goa,India,Valankani Restaurant,15.672119899999998,73.7080536,1436846456439066359,"Valankani Restaurant,Goa,India"
Goa,India,Cross Road Restaurant,15.521635,73.76703549999998,11803846999865640052,"Cross Road Restaurant,Goa,India"
Goa,India,St. Antony's Restaurant,15.5364173,73.76410859999999,687020851251332743,"St. Antony's Restaurant,Goa,India"
Goa,India,Come'n'Rest,15.553058600000002,73.7527244,16824832692554714782,"Come'n'Rest,Goa,India"
Goa,India,Peter's Restaurant,15.5411886,73.7562699,4954211177593982543,"Peter's Restaurant,Goa,India"
Goa,India,Gawin's Restaurant & Pub,15.3504779,73.92235,1431366557782789661,"Gawin's Restaurant & Pub,Goa,India"
Goa,India,The Verandah Restaurant,15.495594199999998,73.83143879999999,17524474894633681833,"The Verandah Restaurant,Goa,India"
Goa,India,Camilo's Bar & Restaurant,15.467003899999998,73.80716340000002,8723095803755318431,"Camilo's Bar & Restaurant,Goa,India"
Goa,India,ForRest,15.4976726,73.81911099999998,11844473083154417676,"ForRest,Goa,India"
Goa,India,Shalimar Restaurant,15.496107,73.82292740000003,8215350401900235064,"Shalimar Restaurant,Goa,India"
Goa,India,Kamat Restaurant,15.498576500000002,73.8282422,5105756015886943379,"Kamat Restaurant,Goa,India"
Goa,India,White Rock Restaurant,15.6038065,73.7337646,18303427649956037921,"White Rock Restaurant,Goa,India"
Goa,India,Martin's Multicuisine Bar & Restaurant,15.2749745,73.9581859,6675200167173047194,"Martin's Multicuisine Bar & Restaurant,Goa,India"
Goa,India,SWAD Restaurant,15.2719812,73.9609203,11584336136250738565,"SWAD Restaurant,Goa,India"
Goa,India,Lazaro Corner Restaurant,15.2757041,73.95711209999997,18229551256818829175,"Lazaro Corner Restaurant,Goa,India"
Goa,India,Flavours Restaurant,15.276129699999998,73.9171533,3674127599142257785,"Flavours Restaurant,Goa,India"
Goa,India,La Marina Family Restaurant,15.2749087,73.95932509999999,4466937437537978181,"La Marina Family Restaurant,Goa,India"
Goa,India,La Marina Family Restaurant,15.273212699999998,73.9594108,12178230201176310976,"La Marina Family Restaurant,Goa,India"
Goa,India,La Marina Family Restaurant,15.2741638,73.9593169,7094024044220400588,"La Marina Family Restaurant,Goa,India"
Goa,India,Relax Bar & Restaurant,15.2748196,73.9565843,537234322212867868,"Relax Bar & Restaurant,Goa,India"
Goa,India,Girish Family Restaurant & Bar,15.25911,74.11,16902527000746151370,"Girish Family Restaurant & Bar,Goa,India"
Goa,India,Pereira Pub  & Rest,15.225420000000002,73.93259,16221701185247659221,"Pereira Pub  & Rest,Goa,India"
Goa,India,Antares Restaurant & Beach Club,15.59448,73.734116,14512529912588617668,"Antares Restaurant & Beach Club,Goa,India"
Goa,India,The River Restaurant by Cyrus Todiwala,15.564566,73.74944,10918452587602135877,"The River Restaurant by Cyrus Todiwala,Goa,India"
Goa,India,Ocean World Bar and Restaurant,15.2588269,73.9651754,8658169203781812414,"Ocean World Bar and Restaurant,Goa,India"
Goa,India,Furtados Restaurant and Bar,15.268988,73.95853000000002,9634004991046862757,"Furtados Restaurant and Bar,Goa,India"
Goa,India,Vincy's Place Bar & Restaurant,15.541991,73.75793,10498677299288165478,"Vincy's Place Bar & Restaurant,Goa,India"
Goa,India,Krishna Multi Cuisine Veg Restaurant,15.286398000000002,73.97835500000002,4249656415256921709,"Krishna Multi Cuisine Veg Restaurant,Goa,India"
Goa,India,Kross Roads Restaurant,15.285973,73.979324,4205629709019466810,"Kross Roads Restaurant,Goa,India"
Goa,India,Pai Palace Pure Veg Family Restaurant,15.273079999999998,73.96109,2306021359936816167,"Pai Palace Pure Veg Family Restaurant,Goa,India"
Goa,India,Laxmi Veg Restaurant,15.284537,73.97555,16714796437409386256,"Laxmi Veg Restaurant,Goa,India"
Goa,India,Spicy Family Restaurant,15.270366,73.96226,11379452629848638573,"Spicy Family Restaurant,Goa,India"
Goa,India,White House Bar & Restaurant,15.460913,73.80566999999998,12019877071674363803,"White House Bar & Restaurant,Goa,India"
Goa,India,Klassic Restaurant,15.257748499999998,73.9658114,3401060046596622417,"Klassic Restaurant,Goa,India"
Goa,India,Huniso Resto Bar,15.17934,73.94726,5507709901916096068,"Huniso Resto Bar,Goa,India"
Goa,India,Preeti Milena Udpi Resturant,15.260728,74.10778,8005674265699107723,"Preeti Milena Udpi Resturant,Goa,India"
Goa,India,SatyaVinayak Bar & Restaurant,15.277248,73.97582,12531246474952789503,"SatyaVinayak Bar & Restaurant,Goa,India"
Goa,India,Mac C's Restaurant,15.1725855,74.00542,2230651674410631232,"Mac C's Restaurant,Goa,India"
Goa,India,Capricorn Bar & Restaurant,15.254564000000002,73.96149399999999,12617632511487657600,"Capricorn Bar & Restaurant,Goa,India"
Goa,India,Kingsley Restaurant and Bar,15.296724,73.92358399999998,11473828457564753116,"Kingsley Restaurant and Bar,Goa,India"
Goa,India,Kashi Dairy Sweets & Restaurant,15.408333,73.791664,17587275218890146971,"Kashi Dairy Sweets & Restaurant,Goa,India"
Goa,India,Shaguna Wines N Restaurant With Bar,15.203166,73.99518,4079318915331671836,"Shaguna Wines N Restaurant With Bar,Goa,India"
Goa,India,Samiksha Bar And Restaurant,15.1869335,73.997986,865587325720283137,"Samiksha Bar And Restaurant,Goa,India"
Goa,India,Naina Bar and Family Restaurant,15.069845999999998,74.02866,18196343433922037794,"Naina Bar and Family Restaurant,Goa,India"
Goa,India,VG's Vernon Glorio Bar & Restaurant,15.224218,73.933786,2768513561918654428,"VG's Vernon Glorio Bar & Restaurant,Goa,India"
Goa,India,The Avenue - Multi Cuisine Restaurant &…,15.2179481,73.95004509999998,5126833342038229763,"The Avenue - Multi Cuisine Restaurant &…,Goa,India"
Goa,India,Mohnish Bar and Restaurant,15.588719,73.94569,5231291293664038753,"Mohnish Bar and Restaurant,Goa,India"
Goa,India,Starlite Bar And Family Restaurant,15.285696,73.95738,9739562567955861306,"Starlite Bar And Family Restaurant,Goa,India"
Goa,India,Apana Punjab Restaurant,15.598069,73.74428,9534045073003793520,"Apana Punjab Restaurant,Goa,India"
Goa,India,Zatpat Fast Food Restaurant,15.610131,74.06564,13830779765906296754,"Zatpat Fast Food Restaurant,Goa,India"
Goa,India,Ritz Classic Restaurant N Bar,15.498607000000002,73.82665300000002,16584503449024875259,"Ritz Classic Restaurant N Bar,Goa,India"
Goa,India,VIP Bar & Restaurant,15.4780921,73.92479959999999,15279752247721282547,"VIP Bar & Restaurant,Goa,India"
Goa,India,Sheela Bar & Restaurant,15.40162,73.865166,8357885286083806955,"Sheela Bar & Restaurant,Goa,India"
Goa,India,Sangeetha Restaurant,15.398448000000002,73.81152,4476245777826006916,"Sangeetha Restaurant,Goa,India"
Goa,India,Prabhat - Seafood Restaurant,15.39627,73.81049,9387748837458726272,"Prabhat - Seafood Restaurant,Goa,India"
Goa,India,Goan Nook Family Restaurant & Bar,15.506927,73.80996999999998,3004213427971247217,"Goan Nook Family Restaurant & Bar,Goa,India"
Goa,India,Hill View Bar & Restaurant,15.579498999999998,73.759169,10449785146079792268,"Hill View Bar & Restaurant,Goa,India"
Goa,India,Anand Sea Food Restaurant & Bar,15.595757999999998,73.76075,16286503318394782068,"Anand Sea Food Restaurant & Bar,Goa,India"
Goa,India,Government Rest House,15.5272455,74.12823,5198808614834946879,"Government Rest House,Goa,India"
Goa,India,Mollem Karibu Garden Restaurant,15.374995000000002,74.22835500000002,9506071570488050395,"Mollem Karibu Garden Restaurant,Goa,India"
Goa,India,Hill Breeze Bar & Restaurant,15.416484,73.987306,13095407250515315282,"Hill Breeze Bar & Restaurant,Goa,India"
Goa,India,The Bazzar Restaurant,15.32986,74.020238,8219109603256975871,"The Bazzar Restaurant,Goa,India"
Goa,India,Kamalabai Sea Food Restaurant,15.591172,73.80420600000002,16179352917770781994,"Kamalabai Sea Food Restaurant,Goa,India"
Goa,India,Stomach Bar & Restaurant,15.591257,73.814636,9821762720401212837,"Stomach Bar & Restaurant,Goa,India"
Goa,India,Udupi Restaurant,15.262435,74.044616,16239109102600275754,"Udupi Restaurant,Goa,India"
Goa,India,Azavedo Bar & Restaurant,15.291392000000002,74.04128,7656782180916743209,"Azavedo Bar & Restaurant,Goa,India"
Goa,India,Sea Pebble Restaurant,15.474414,73.84957,13290459407287272257,"Sea Pebble Restaurant,Goa,India"
Goa,India,Boom Boom Bar & Restaurant,15.6260365,73.8679507,4641710452934658654,"Boom Boom Bar & Restaurant,Goa,India"
Goa,India,Ramakrishna Bar & Restaurant,15.574042000000002,73.79335,1728629732640833877,"Ramakrishna Bar & Restaurant,Goa,India"
Goa,India,Hotel Pratibha Bar And Restaurant,15.609814000000002,73.82441800000002,10403061195633017866,"Hotel Pratibha Bar And Restaurant,Goa,India"
Goa,India,Maria Bar & Restaurant,15.62629,73.858665,14671941772478596465,"Maria Bar & Restaurant,Goa,India"
Goa,India,Aroma Bar and Restaurant,15.282646,73.95737,8597731549253092683,"Aroma Bar and Restaurant,Goa,India"
Goa,India,Rajasthani Restaurant & Dhaba,15.392448000000002,74.021214,6412915952695725170,"Rajasthani Restaurant & Dhaba,Goa,India"
Goa,India,Cafe Mouaz Veg & Non Veg Restaurant,15.488397,73.818563,7287702887762511597,"Cafe Mouaz Veg & Non Veg Restaurant,Goa,India"
Goa,India,Contihino Bar and Restaurant,15.397698000000002,73.91690899999998,11743313566733781819,"Contihino Bar and Restaurant,Goa,India"
Goa,India,Satisfy Bar & Restaurant,15.523467000000002,73.95750699999998,5705987079968343132,"Satisfy Bar & Restaurant,Goa,India"
Goa,India,Filsus Wines & Restaurant,15.4077234,73.90858659999998,18239062166125956560,"Filsus Wines & Restaurant,Goa,India"
Goa,India,Flavors Cafe Bar & Restaurant,15.451579,73.923488,2072089815492478265,"Flavors Cafe Bar & Restaurant,Goa,India"
Goa,India,Earthen Pot Restaurant,15.530651,74.13121899999999,15598037065687254143,"Earthen Pot Restaurant,Goa,India"
Goa,India,"Sheetal Bar & Restaurant, Authentic Goan Food",15.544355,74.056104,2225412193128367934,"Sheetal Bar & Restaurant, Authentic Goan Food,Goa,India"
Goa,India,Vishant Bar And Restaurant,15.398384,73.84306,9008187090343183065,"Vishant Bar And Restaurant,Goa,India"
Goa,India,Kurtikar Bar & Restaurant,15.397453,73.84626,2097080232195277258,"Kurtikar Bar & Restaurant,Goa,India"
Goa,India,Venice Bar & Restaurant,15.272466,73.959168,12045471354913637787,"Venice Bar & Restaurant,Goa,India"
Goa,India,Navtara Pure Veg Restaurant - Panjim,15.49941,73.82309599999998,13438414362607701919,"Navtara Pure Veg Restaurant - Panjim,Goa,India"
Goa,India,Moon Family Bar and Resturant,15.504384,73.862703,757135750811352,"Moon Family Bar and Resturant,Goa,India"
Goa,India,Infantaria Pastalaria Restaurant,15.545343,73.770484,12734120991989909300,"Infantaria Pastalaria Restaurant,Goa,India"
Goa,India,Happy Punjab Dhaba Bar and Restaurant,15.686572,73.83159,15622065145404342940,"Happy Punjab Dhaba Bar and Restaurant,Goa,India"
Goa,India,Hot Spice Family Restaurent,15.505118,73.863519,9253462174769171070,"Hot Spice Family Restaurent,Goa,India"
Goa,India,Prime Bar N Rest (Specializes In Sea Food),15.5941109,73.7601153,3330916661964261760,"Prime Bar N Rest (Specializes In Sea Food),Goa,India"
Goa,India,Adarsh Bar & Restaurant,15.593067,73.94497199999998,10886025621364295071,"Adarsh Bar & Restaurant,Goa,India"
Goa,India,White Rock Bar & Restaurant,15.600699,73.93809,6833489879552641506,"White Rock Bar & Restaurant,Goa,India"
Goa,India,Hotel Shaurya Family Bar & Restaurant,15.501848999999998,73.861334,4250104916320535352,"Hotel Shaurya Family Bar & Restaurant,Goa,India"
Goa,India,Devata Bar & Restaurant,15.502716,73.86930699999998,12472177139844137477,"Devata Bar & Restaurant,Goa,India"
Goa,India,Sai Shradha Restaurant,15.506589000000002,73.824564,6114384142440022433,"Sai Shradha Restaurant,Goa,India"
Goa,India,Rock - Inn Bar & Restaurant,15.528641,73.906391,6319268558952874433,"Rock - Inn Bar & Restaurant,Goa,India"
Goa,India,Five Flowers Bar and Restaurant,15.320769,73.93184000000002,13928882582184543145,"Five Flowers Bar and Restaurant,Goa,India"
Goa,India,Shrivardhan Cafe and Restaurant,15.44297,73.86606,3314440016263071468,"Shrivardhan Cafe and Restaurant,Goa,India"
Goa,India,49ers Restaurant & Pub,15.276268,73.91528199999998,7320034107306494490,"49ers Restaurant & Pub,Goa,India"
Goa,India,Sams Cottages and Resto Pub,15.283947,73.91360999999998,18437180867141453578,"Sams Cottages and Resto Pub,Goa,India"
Goa,India,Seashell Family Restaurant & Bar,15.2846,73.91264,14612606734561333058,"Seashell Family Restaurant & Bar,Goa,India"
Goa,India,Spice Studio Restaurant,15.306842,73.911485,9925433815723886321,"Spice Studio Restaurant,Goa,India"
Goa,India,Magzika Bar and Restaurant,15.313902,73.914406,15320262699224813510,"Magzika Bar and Restaurant,Goa,India"
Goa,India,Top View Restaurant,15.459103,73.81277,5524904429018957009,"Top View Restaurant,Goa,India"
Goa,India,Hill Top Bar & Restaurant,15.487459,73.83184,9020888848865773149,"Hill Top Bar & Restaurant,Goa,India"
Goa,India,Roma Pisa Restaurant,15.518762,73.76669,10436194399765744984,"Roma Pisa Restaurant,Goa,India"
Goa,India,Wild West Bar n Restaurant,15.252726,74.10494,11102728817386539110,"Wild West Bar n Restaurant,Goa,India"
Goa,India,Dinha's Restaurant,15.259926,73.92668,8204552484723311375,"Dinha's Restaurant,Goa,India"
Goa,India,The Camron Restaurant,15.30702,73.912236,1434919528284112423,"The Camron Restaurant,Goa,India"
Goa,India,Andron Restaurant,15.593066,73.85359,9178342749143714459,"Andron Restaurant,Goa,India"
Goa,India,Pakiza Restaurant,15.499111,73.83103,4658218361001427223,"Pakiza Restaurant,Goa,India"
Goa,India,Vinanti Restaurant & Bar,15.500582,73.82786999999998,16177195112473906416,"Vinanti Restaurant & Bar,Goa,India"
Goa,India,Horse Shoe Bar & Restaurant,15.497591,73.83216,13556450690491631938,"Horse Shoe Bar & Restaurant,Goa,India"
Goa,India,Edu's Multi Cuisine Restaurant,15.487245,73.812919,8387847229023340610,"Edu's Multi Cuisine Restaurant,Goa,India"
Goa,India,New Kohinoor Restaurant,15.485088,73.82160999999998,4950746800081686103,"New Kohinoor Restaurant,Goa,India"
Goa,India,Amancio Bar and Restaurant,15.631503,73.764626,8034142832457238373,"Amancio Bar and Restaurant,Goa,India"
Goa,India,Peter's Pub & Restaurant,15.320833,73.904577,2350473910128296521,"Peter's Pub & Restaurant,Goa,India"
Goa,India,Shilpa Restaurant,15.262998,74.10855,6567496564907788649,"Shilpa Restaurant,Goa,India"
Goa,India,Flora Family Restaurant & Pub,15.263108,74.109492,9865769081549376051,"Flora Family Restaurant & Pub,Goa,India"
Goa,India,Bollywood Cafe Bar & Restaurant,15.263404,74.104,2719256894900682898,"Bollywood Cafe Bar & Restaurant,Goa,India"
Goa,India,JK Restaurant,15.5579004,74.0202623,6645726730068444725,"JK Restaurant,Goa,India"
Goa,India,Valentino's Multi Cusine Restaurant,15.496743,73.782036,11067610060934889782,"Valentino's Multi Cusine Restaurant,Goa,India"
Goa,India,Rajesh Bar & Restaurant,15.655322,73.84646,15951982417283204431,"Rajesh Bar & Restaurant,Goa,India"
Goa,India,Spy Bar & Restaurant,15.652112,73.84658,10999125878551429525,"Spy Bar & Restaurant,Goa,India"
Goa,India,Tropicana Riverside Bar & Restaurant,15.497955,73.780365,16888691596802083198,"Tropicana Riverside Bar & Restaurant,Goa,India"
Goa,India,Sarina Bar and Restaurant,15.418696,73.90384,6111126511071219466,"Sarina Bar and Restaurant,Goa,India"
Goa,India,Costav's Bar n Restaurant,15.336265,74.019348,6586335012417063237,"Costav's Bar n Restaurant,Goa,India"
Goa,India,Bina Bar and Restaurant,15.322693,73.93953,12535313001217345186,"Bina Bar and Restaurant,Goa,India"
Goa,India,Hotel Damodar Bar and Restaurant,15.328237,73.933464,17495079545476632449,"Hotel Damodar Bar and Restaurant,Goa,India"
Goa,India,Archie Restaurant & Bar,15.335946,73.994564,1035321001754379403,"Archie Restaurant & Bar,Goa,India"
Goa,India,Anushka Family Restaurant,15.335837,73.99491,16486453748345620810,"Anushka Family Restaurant,Goa,India"
Goa,India,Fishland Bar and Restaurant,15.332377,73.99250699999997,1138752648600308132,"Fishland Bar and Restaurant,Goa,India"
Goa,India,Lake View Bar & Restaurant,15.336778,73.998634,11027456498079319817,"Lake View Bar & Restaurant,Goa,India"
Goa,India,D `Costa Bar and Restaurant,15.227831,74.13759,15036068892307179938,"D `Costa Bar and Restaurant,Goa,India"
Goa,India,Candle Light Bar & Restaurant,15.617107999999998,73.76254,3469638850737360239,"Candle Light Bar & Restaurant,Goa,India"
Goa,India,Leo's Family Restaurant & Bar,15.646789000000002,73.836,17182673727284266528,"Leo's Family Restaurant & Bar,Goa,India"
Goa,India,Lobo Bar & Restaurant,15.61222,73.81004,9270228624729000863,"Lobo Bar & Restaurant,Goa,India"
Goa,India,Lawrence Bar & Restaurant,15.61567,73.794427,13060311839275895735,"Lawrence Bar & Restaurant,Goa,India"
Goa,India,Buon Appetito - Italian Restaurant,15.597073000000002,73.74863,17750546091118710716,"Buon Appetito - Italian Restaurant,Goa,India"
Goa,India,Kentuckee Seafood Restaurant,15.2777456,73.9139004,1848796641360758659,"Kentuckee Seafood Restaurant,Goa,India"
Goa,India,Sadanand Bar & Restaurant,15.400308,73.97899,13772823386825246479,"Sadanand Bar & Restaurant,Goa,India"
Goa,India,Savor Restaurant & Bar,15.387295000000002,74.003782,15172339994245087524,"Savor Restaurant & Bar,Goa,India"
Goa,India,Mahesh Bar And Restaurant,15.399938,73.97976,3565113966732725425,"Mahesh Bar And Restaurant,Goa,India"
Goa,India,Hot Pot Bar and Restaurant,15.5431368,73.8206992,12531127459648195712,"Hot Pot Bar and Restaurant,Goa,India"
Goa,India,Bella Vista Bar and Restaurant,15.5434854,73.8119658,4988129944556555667,"Bella Vista Bar and Restaurant,Goa,India"
Goa,India,Branco's Restaurant and Bar,15.4827646,73.8199891,1854877418847882901,"Branco's Restaurant and Bar,Goa,India"
Goa,India,Jacksons Restaurant & Bar,15.282885999999998,73.969086,9843108106183396638,"Jacksons Restaurant & Bar,Goa,India"
Goa,India,Sai Palace - Family Bar and Restaurant,15.427206,73.89827,4512079256465918770,"Sai Palace - Family Bar and Restaurant,Goa,India"
Goa,India,Raddish Bar and Restaurant,15.5688195,73.7536094,7130617793679476927,"Raddish Bar and Restaurant,Goa,India"
Goa,India,Alexander Radhe Krishna Restaurant,15.2768644,73.9153714,14677344731187728035,"Alexander Radhe Krishna Restaurant,Goa,India"
Goa,India,Hot Spice Kitchen Restaurant,15.2768621,73.91527959999998,9010020572552383096,"Hot Spice Kitchen Restaurant,Goa,India"
Goa,India,Seamen's Corner Family Restaurant and Bar,15.2021549,73.9769733,7980781540909924793,"Seamen's Corner Family Restaurant and Bar,Goa,India"
Goa,India,Darya AC Family Restaurant,15.400918,74.013159,1802748912225373736,"Darya AC Family Restaurant,Goa,India"
Goa,India,Baretto Bar and Restaurant,15.239862900000002,73.9417035,9810578933517141993,"Baretto Bar and Restaurant,Goa,India"
Goa,India,Vincent Restaurant and Bar,15.2445456,73.938839,8393997236453853705,"Vincent Restaurant and Bar,Goa,India"
Goa,India,Inn Street Family Restaurant & Bar,15.568559,74.00056,3704820409375869280,"Inn Street Family Restaurant & Bar,Goa,India"
Goa,India,Laxmi Bar and Restaurant,15.5995667,73.81546750000003,296640771666231926,"Laxmi Bar and Restaurant,Goa,India"
Goa,India,Joecons Garden Restaurant,15.23819,74.11832,7934305928352318904,"Joecons Garden Restaurant,Goa,India"
Goa,India,Pakwan Family Restaurant Veg Non-Veg,15.50716,73.81089,6964047305190097917,"Pakwan Family Restaurant Veg Non-Veg,Goa,India"
Goa,India,Royal Bar & Restaurant,15.50683,73.83187,3416998220266753067,"Royal Bar & Restaurant,Goa,India"
Goa,India,Cowboy's Bar n Restaurant,15.2526202,73.96848940000002,6399785993034026345,"Cowboy's Bar n Restaurant,Goa,India"
Goa,India,Supriya Bar & Restaurant,15.00137,74.08211,15624476304215394335,"Supriya Bar & Restaurant,Goa,India"
Goa,India,Rukima Bar & Restaurant,15.006329999999998,74.06204,8690657555133318917,"Rukima Bar & Restaurant,Goa,India"
Goa,India,Greenland Restaurant,14.99543,74.09374,7309304844395761474,"Greenland Restaurant,Goa,India"
Goa,India,Parvati Restaurant,15.075029999999998,74.02911999999998,3832233409851771782,"Parvati Restaurant,Goa,India"
Goa,India,Viva AMB Restaurant,15.15186,74.01879,2806852528830171396,"Viva AMB Restaurant,Goa,India"
Goa,India,Aruna Restaurant,15.26435,73.97844,601490927373665718,"Aruna Restaurant,Goa,India"
Goa,India,Saffron Lawns Restaurant,15.26968,73.95055,1483385524930888462,"Saffron Lawns Restaurant,Goa,India"
Goa,India,D'Melo Bar and Restaurant,15.2109258,73.977069,5633768739594979083,"D'Melo Bar and Restaurant,Goa,India"
Goa,India,Lake side Bar and Restaurant,15.206392,73.98176600000002,11667445703537806319,"Lake side Bar and Restaurant,Goa,India"
Goa,India,New Grand Restaurant,15.2108812,73.9769075,12497002861413483006,"New Grand Restaurant,Goa,India"
Goa,India,3 Kisses Restaurant and Feni Bar,15.245306,73.92517099999998,10333356258647494051,"3 Kisses Restaurant and Feni Bar,Goa,India"
Goa,India,Alcoves Restaurant and Bar,15.2703682,73.9703888,2518792481199309142,"Alcoves Restaurant and Bar,Goa,India"
Goa,India,Amasan Bar & Restaurant,15.25259,73.97973,1377323000018387279,"Amasan Bar & Restaurant,Goa,India"
Goa,India,Nendison Village Restaurant,15.18126,73.94709,16013568720979774064,"Nendison Village Restaurant,Goa,India"
Goa,India,Portuguese Balçao Restaurant,15.17751,73.98721,542379993843777624,"Portuguese Balçao Restaurant,Goa,India"
Goa,India,Villa by the Sea Restrooms,15.219060999999998,73.9333572,4333744089387715521,"Villa by the Sea Restrooms,Goa,India"
Goa,India,Angela Bar and Restaurant,15.2852902,73.9782188,5327611613759881496,"Angela Bar and Restaurant,Goa,India"
Goa,India,Ace`s The Pub & Restaurant,15.497164,73.8250126,13288471892010356426,"Ace`s The Pub & Restaurant,Goa,India"
Goa,India,Sea Horse Restaurant,15.6263775,73.74167309999999,8665712324928555698,"Sea Horse Restaurant,Goa,India"
Goa,India,Green Apple Bar&Restaurant,15.6304404,73.73603390000002,5990485371102252893,"Green Apple Bar&Restaurant,Goa,India"
Goa,India,Maria Guesthouse & Restaurant,15.0089788,74.0277459,7361987110145114275,"Maria Guesthouse & Restaurant,Goa,India"
Goa,India,Dream Land Family Bar and Restaurant,15.287629699999998,73.95490649999998,10323885779231654882,"Dream Land Family Bar and Restaurant,Goa,India"
Goa,India,Open Air Restarant,15.3185113,73.941739,3808413300739558309,"Open Air Restarant,Goa,India"
Goa,India,Moonlight Bar and Restaurant,15.3207229,73.9409939,537974082665923079,"Moonlight Bar and Restaurant,Goa,India"
Goa,India,Coastal Flavours Family Bar and Restaurant,15.3785406,73.925035,1302413418964338531,"Coastal Flavours Family Bar and Restaurant,Goa,India"
Goa,India,Lake View Bar and Restaurant,15.4408984,73.8689517,9693912159311382165,"Lake View Bar and Restaurant,Goa,India"
Goa,India,Govind Restaurant,15.4645199,73.85550970000001,17693252784123693977,"Govind Restaurant,Goa,India"
Goa,India,Alisha Restaurant,15.5110714,73.83498279999998,9046007582991467231,"Alisha Restaurant,Goa,India"
Goa,India,Kamal Bar and Family Restaurant,15.5200468,73.8283687,2940224488093730273,"Kamal Bar and Family Restaurant,Goa,India"
Goa,India,Family Restaurant,15.5251692,73.8266846,16658492275841453481,"Family Restaurant,Goa,India"
Goa,India,Viva Goa Bar and Restaurant,15.5284704,73.825625,4235883799297675092,"Viva Goa Bar and Restaurant,Goa,India"
Goa,India,Spice House Family Restaurant with Bar,15.5298354,73.82521120000001,4469011893191461196,"Spice House Family Restaurant with Bar,Goa,India"
Goa,India,Royal Restaurant,15.5309768,73.8247922,6213818175938448721,"Royal Restaurant,Goa,India"
Goa,India,Chandrakant Bar and Restaurant,15.531085699999998,73.8247379,9043814376147009646,"Chandrakant Bar and Restaurant,Goa,India"
Goa,India,Sanskruthi Vegetarian Restaurant,15.5300049,73.825498,16090983870978540407,"Sanskruthi Vegetarian Restaurant,Goa,India"
Goa,India,Chaska Multicuisine Restaurant,15.5291677,73.82572540000002,11903168147990201845,"Chaska Multicuisine Restaurant,Goa,India"
Goa,India,Guru Restaurant,15.523878699999996,73.8281825,3719815184182625233,"Guru Restaurant,Goa,India"
Goa,India,Basseraa Dormitory and Restaurant,15.4935682,73.81965179999997,1457312137749874320,"Basseraa Dormitory and Restaurant,Goa,India"
Goa,India,Shubhankar Family Restaurant and Bar,15.4914652,73.9229245,13785705245607217586,"Shubhankar Family Restaurant and Bar,Goa,India"
Goa,India,Wilsha Bar and Restaurant,15.485581,73.9232146,15981266958888880287,"Wilsha Bar and Restaurant,Goa,India"
Goa,India,Sunshine Restaurant,15.4582375,73.9242079,12868893698739291015,"Sunshine Restaurant,Goa,India"
Goa,India,Kalika Bar and Restaurant,15.2848568,73.9775042,12891208703806230420,"Kalika Bar and Restaurant,Goa,India"
Goa,India,BM Bar and Restaurant,15.2933326,73.9752671,1377249254470009714,"BM Bar and Restaurant,Goa,India"
Goa,India,Vihar Udupi Restaurant,15.4997554,73.83193220000003,6167722927146943881,"Vihar Udupi Restaurant,Goa,India"
Goa,India,Texas Bar and Restaurant,15.499170199999998,73.8262814,14705382474519104817,"Texas Bar and Restaurant,Goa,India"
Goa,India,Nanu's Multi-cuisine Restaurant,15.6289948,73.7356913,7540124074540026798,"Nanu's Multi-cuisine Restaurant,Goa,India"
Goa,India,Blu World Bar & Rest,15.6284389,73.7379246,9035588445022012083,"Blu World Bar & Rest,Goa,India"
Goa,India,Deep Divya Diksha Hotel Cold Drinks & Restaurant,15.6306357,73.73645350000002,6520683880202847992,"Deep Divya Diksha Hotel Cold Drinks & Restaurant,Goa,India"
Goa,India,Cafe Dolphin Bar & Restaurant,15.632637900000002,73.7317568,8635868087185853146,"Cafe Dolphin Bar & Restaurant,Goa,India"
Goa,India,Fern's Bar Restaurant,15.6179543,73.7374264,9115380182757428773,"Fern's Bar Restaurant,Goa,India"
Goa,India,Sharda Restaurant Parking Spot,15.4513081,73.8645989,13968110003288164499,"Sharda Restaurant Parking Spot,Goa,India"
Goa,India,Pinto Bar and Restaurant,15.0891365,73.9222501,3844762871021519044,"Pinto Bar and Restaurant,Goa,India"
Goa,India,Royale McCla Bar and Restaurant,15.1360139,73.9555744,10947486007044817016,"Royale McCla Bar and Restaurant,Goa,India"
Goa,India,Roadshade Bar and Restaurant,15.1994184,73.9519089,6402589148259303818,"Roadshade Bar and Restaurant,Goa,India"
Goa,India,Sai Punjabi Rasoi Pure Veg Restaurant,15.2783476,73.9284608,4906309238189149294,"Sai Punjabi Rasoi Pure Veg Restaurant,Goa,India"
Goa,India,M/s. Harshada Restaurant,15.6028385,73.7616585,11396372043449321488,"M/s. Harshada Restaurant,Goa,India"
Goa,India,Laxmi Family Restaurant & Bar,15.626792000000002,73.74188259999998,2037660792409771915,"Laxmi Family Restaurant & Bar,Goa,India"
Goa,India,Venice Garden Bar and Restaurant,15.272630800000002,73.95950090000002,6745060141800835807,"Venice Garden Bar and Restaurant,Goa,India"
Goa,India,Mayonna Creekside Bar & Restorant,15.5663673,73.7510963,4796737216963625099,"Mayonna Creekside Bar & Restorant,Goa,India"
Goa,India,Jaws Bar and Restaurant,15.5996303,73.73994859999998,12120898679600858300,"Jaws Bar and Restaurant,Goa,India"
Goa,India,Sai Family Restaurant,15.0103705,74.02964490000002,762497255209389461,"Sai Family Restaurant,Goa,India"
Goa,India,Anant Goa Bar and Restaurant,15.009156900000002,74.0276042,16045480604436678392,"Anant Goa Bar and Restaurant,Goa,India"
Goa,India,Rai Restaurant,15.652799300000002,73.71614790000002,3756982586687704534,"Rai Restaurant,Goa,India"
Goa,India,Oros Villa Restaurant,16.1221404,73.7049588,17775224242406835531,"Oros Villa Restaurant,Goa,India"
Goa,India,Sai Leela Family Restaurant Veg & Non Veg,15.5454971,73.76434259999998,17979561530473989255,"Sai Leela Family Restaurant Veg & Non Veg,Goa,India"
Goa,India,Cliffdide Restaurant,15.6947175,73.69847970000002,14537358420282197480,"Cliffdide Restaurant,Goa,India"
Goa,India,Hira Bar & Restaurant,15.0101874,74.02650770000002,4206296005504680445,"Hira Bar & Restaurant,Goa,India"
Goa,India,Tourist Bar & Restaurant,15.010693300000002,74.0259309,4008698831325644328,"Tourist Bar & Restaurant,Goa,India"
Goa,India,Sai Krupa Family Restaurant,15.0111869,74.02572909999998,4708235395492759032,"Sai Krupa Family Restaurant,Goa,India"
Goa,India,Shakti Bar & Restaurant,15.0118909,74.0246265,12025347558508154024,"Shakti Bar & Restaurant,Goa,India"
Goa,India,Dithya Family Restaurant & Bar,15.0075393,74.04719,14538042251968005583,"Dithya Family Restaurant & Bar,Goa,India"
Goa,India,Cleopatra Restaurant,15.0102285,74.02908690000002,546032952340595575,"Cleopatra Restaurant,Goa,India"
Goa,India,Diya Café Restaurant,15.6912958,73.70450490000002,5575514930226939260,"Diya Café Restaurant,Goa,India"
